start=new Date('2022-06-01T00:00:00.000Z').valueOf();
sats=[{"EPHEMERIS_TYPE":"0","OBJECT_ID":"2022-001A","OBJECT_NAME":"STARLINK-3321","OBJECT_TYPE":"PAYLOAD","MEAN_MOTION":"15.08849395","MEAN_ELEMENT_THEORY":"SGP4","DECAY_DATE":null,"REV_AT_EPOCH":"2368","MEAN_ANOMALY":"266.6195","TIME_SYSTEM":"UTC","COUNTRY_CODE":"US","MEAN_MOTION_DOT":"-0.00027081","TLE_LINE1":"1 50803U 22001A   22151.91667824 -.00027081  00000-0 -16893-2 0  9994","LAUNCH_DATE":"2022-01-06","CLASSIFICATION_TYPE":"U","GP_ID":"205034072","FILE":"3474256","PERIAPSIS":"538.242","ECCENTRICITY":"0.00021310","BSTAR":"-0.00168930000000","SITE":"AFETR","NORAD_CAT_ID":"50803","EPOCH":"2022-05-31T22:00:00.999936","RCS_SIZE":"LARGE","PERIOD":"95.437","INCLINATION":"53.2164","REF_FRAME":"TEME","CENTER_NAME":"EARTH","ELEMENT_SET_NO":"999","SEMIMAJOR_AXIS":"6917.852","MEAN_MOTION_DDOT":"0.0000000000000","APOAPSIS":"541.191","RA_OF_ASC_NODE":"234.1726","TLE_LINE2":"2 50803  53.2164 234.1726 0002131  33.8665 266.6195 15.08849395 23688","ARG_OF_PERICENTER":"33.8665"},{"LAUNCH_DATE":"2022-01-06","TLE_LINE1":"1 50804U 22001B   22151.91667824 -.00015110  00000-0 -93325-3 0  9991","GP_ID":"205035406","CLASSIFICATION_TYPE":"U","MEAN_MOTION_DOT":"-0.00015110","COUNTRY_CODE":"US","TIME_SYSTEM":"UTC","DECAY_DATE":null,"MEAN_ELEMENT_THEORY":"SGP4","MEAN_MOTION":"15.08840115","REV_AT_EPOCH":"2379","MEAN_ANOMALY":"74.6726","OBJECT_ID":"2022-001B","EPHEMERIS_TYPE":"0","OBJECT_NAME":"STARLINK-3323","OBJECT_TYPE":"PAYLOAD","MEAN_MOTION_DDOT":"0.0000000000000","SEMIMAJOR_AXIS":"6917.880","TLE_LINE2":"2 50804  53.2132 224.1774 0001716  40.8917  74.6726 15.08840115 23792","ARG_OF_PERICENTER":"40.8917","RA_OF_ASC_NODE":"224.1774","APOAPSIS":"540.932","REF_FRAME":"TEME","INCLINATION":"53.2132","ELEMENT_SET_NO":"999","CENTER_NAME":"EARTH","NORAD_CAT_ID":"50804","SITE":"AFETR","RCS_SIZE":"LARGE","PERIOD":"95.438","EPOCH":"2022-05-31T22:00:00.999936","PERIAPSIS":"538.558","FILE":"3474285","BSTAR":"-0.00093325000000","ECCENTRICITY":"0.00017160"},{"ELEMENT_SET_NO":"999","CENTER_NAME":"EARTH","REF_FRAME":"TEME","INCLINATION":"53.2147","ARG_OF_PERICENTER":"36.5868","TLE_LINE2":"2 50805  53.2147 225.6760 0002246  36.5868  87.3750 15.08838927 23769","RA_OF_ASC_NODE":"225.6760","APOAPSIS":"541.302","MEAN_MOTION_DDOT":"0.0000000000000","SEMIMAJOR_AXIS":"6917.884","BSTAR":"0.00181170000000","ECCENTRICITY":"0.00022460","PERIAPSIS":"538.195","FILE":"3473682","RCS_SIZE":"LARGE","EPOCH":"2022-05-31T14:00:01.000224","PERIOD":"95.438","NORAD_CAT_ID":"50805","SITE":"AFETR","MEAN_MOTION_DOT":"0.00028663","COUNTRY_CODE":"US","TIME_SYSTEM":"UTC","GP_ID":"204997338","CLASSIFICATION_TYPE":"U","LAUNCH_DATE":"2022-01-06","TLE_LINE1":"1 50805U 22001C   22151.58334491  .00028663  00000-0  18117-2 0  9996","OBJECT_TYPE":"PAYLOAD","OBJECT_NAME":"STARLINK-3333","OBJECT_ID":"2022-001C","EPHEMERIS_TYPE":"0","REV_AT_EPOCH":"2376","MEAN_ANOMALY":"87.3750","DECAY_DATE":null,"MEAN_ELEMENT_THEORY":"SGP4","MEAN_MOTION":"15.08838927"},{"NORAD_CAT_ID":"50806","SITE":"AFETR","EPOCH":"2022-05-31T14:00:01.000224","RCS_SIZE":"LARGE","PERIOD":"95.439","PERIAPSIS":"538.402","FILE":"3474072","BSTAR":"0.00187780000000","ECCENTRICITY":"0.00020330","SEMIMAJOR_AXIS":"6917.944","MEAN_MOTION_DDOT":"0.0000000000000","ARG_OF_PERICENTER":"36.3848","TLE_LINE2":"2 50806  53.2149 225.6815 0002033  36.3848 107.5478 15.08819314 23764","APOAPSIS":"541.215","RA_OF_ASC_NODE":"225.6815","REF_FRAME":"TEME","INCLINATION":"53.2149","ELEMENT_SET_NO":"999","CENTER_NAME":"EARTH","MEAN_ELEMENT_THEORY":"SGP4","DECAY_DATE":null,"MEAN_MOTION":"15.08819314","REV_AT_EPOCH":"2376","MEAN_ANOMALY":"107.5478","OBJECT_ID":"2022-001D","EPHEMERIS_TYPE":"0","OBJECT_NAME":"STARLINK-3335","OBJECT_TYPE":"PAYLOAD","LAUNCH_DATE":"2022-01-06","TLE_LINE1":"1 50806U 22001D   22151.58334491  .00029707  00000-0  18778-2 0  9990","GP_ID":"205006549","CLASSIFICATION_TYPE":"U","MEAN_MOTION_DOT":"0.00029707","COUNTRY_CODE":"US","TIME_SYSTEM":"UTC"},{"MEAN_MOTION_DDOT":"0.0000000000000","SEMIMAJOR_AXIS":"6917.951","APOAPSIS":"541.550","RA_OF_ASC_NODE":"225.6865","TLE_LINE2":"2 50807  53.2177 225.6865 0002507  34.7524 189.1454 15.08817011 23762","ARG_OF_PERICENTER":"34.7524","INCLINATION":"53.2177","REF_FRAME":"TEME","CENTER_NAME":"EARTH","ELEMENT_SET_NO":"999","SITE":"AFETR","NORAD_CAT_ID":"50807","EPOCH":"2022-05-31T14:00:01.000224","RCS_SIZE":"LARGE","PERIOD":"95.439","FILE":"3473684","PERIAPSIS":"538.081","ECCENTRICITY":"0.00025070","BSTAR":"0.00210030000000","LAUNCH_DATE":"2022-01-06","TLE_LINE1":"1 50807U 22001E   22151.58334491  .00033276  00000-0  21003-2 0  9992","CLASSIFICATION_TYPE":"U","GP_ID":"204997123","TIME_SYSTEM":"UTC","COUNTRY_CODE":"US","MEAN_MOTION_DOT":"0.00033276","MEAN_MOTION":"15.08817011","MEAN_ELEMENT_THEORY":"SGP4","DECAY_DATE":null,"REV_AT_EPOCH":"2376","MEAN_ANOMALY":"189.1454","EPHEMERIS_TYPE":"0","OBJECT_ID":"2022-001E","OBJECT_NAME":"STARLINK-3353","OBJECT_TYPE":"PAYLOAD"},{"CENTER_NAME":"EARTH","ELEMENT_SET_NO":"999","INCLINATION":"53.2156","REF_FRAME":"TEME","RA_OF_ASC_NODE":"227.1776","APOAPSIS":"541.384","ARG_OF_PERICENTER":"38.0740","TLE_LINE2":"2 50808  53.2156 227.1776 0002357  38.0740 134.3055 15.08837326  1304","SEMIMAJOR_AXIS":"6917.889","MEAN_MOTION_DDOT":"0.0000000000000","ECCENTRICITY":"0.00023570","BSTAR":"0.00039498000000","FILE":"3474118","PERIAPSIS":"538.123","RCS_SIZE":"LARGE","PERIOD":"95.438","EPOCH":"2022-05-31T06:00:02.000160","SITE":"AFETR","NORAD_CAT_ID":"50808","COUNTRY_CODE":"US","TIME_SYSTEM":"UTC","MEAN_MOTION_DOT":"0.00006003","CLASSIFICATION_TYPE":"U","GP_ID":"205030859","TLE_LINE1":"1 50808U 22001F   22151.25002315  .00006003  00000-0  39498-3 0  9990","LAUNCH_DATE":"2022-01-06","OBJECT_TYPE":"PAYLOAD","OBJECT_NAME":"STARLINK-3355","EPHEMERIS_TYPE":"0","OBJECT_ID":"2022-001F","REV_AT_EPOCH":"130","MEAN_ANOMALY":"134.3055","MEAN_MOTION":"15.08837326","DECAY_DATE":null,"MEAN_ELEMENT_THEORY":"SGP4"},{"OBJECT_ID":"2022-001G","EPHEMERIS_TYPE":"0","OBJECT_NAME":"STARLINK-3232","OBJECT_TYPE":"PAYLOAD","DECAY_DATE":null,"MEAN_ELEMENT_THEORY":"SGP4","MEAN_MOTION":"15.08828858","REV_AT_EPOCH":"2377","MEAN_ANOMALY":"126.6678","MEAN_MOTION_DOT":"0.00031142","TIME_SYSTEM":"UTC","COUNTRY_CODE":"US","LAUNCH_DATE":"2022-01-06","TLE_LINE1":"1 50809U 22001G   22151.58334491  .00031142  00000-0  19667-2 0  9997","GP_ID":"204997180","CLASSIFICATION_TYPE":"U","PERIAPSIS":"538.228","FILE":"3473693","BSTAR":"0.00196670000000","ECCENTRICITY":"0.00022420","NORAD_CAT_ID":"50809","SITE":"AFETR","RCS_SIZE":"LARGE","PERIOD":"95.438","EPOCH":"2022-05-31T14:00:01.000224","REF_FRAME":"TEME","INCLINATION":"53.2158","ELEMENT_SET_NO":"999","CENTER_NAME":"EARTH","SEMIMAJOR_AXIS":"6917.914","MEAN_MOTION_DDOT":"0.0000000000000","TLE_LINE2":"2 50809  53.2158 225.6830 0002242  37.2496 126.6678 15.08828858 23773","ARG_OF_PERICENTER":"37.2496","RA_OF_ASC_NODE":"225.6830","APOAPSIS":"541.330"},{"EPHEMERIS_TYPE":"0","OBJECT_ID":"2022-001H","OBJECT_TYPE":"PAYLOAD","OBJECT_NAME":"STARLINK-3348","MEAN_MOTION":"15.08822029","DECAY_DATE":null,"MEAN_ELEMENT_THEORY":"SGP4","REV_AT_EPOCH":"2374","MEAN_ANOMALY":"169.2155","COUNTRY_CODE":"US","TIME_SYSTEM":"UTC","MEAN_MOTION_DOT":"0.00033298","LAUNCH_DATE":"2022-01-06","TLE_LINE1":"1 50810U 22001H   22151.58334491  .00033298  00000-0  21014-2 0  9992","CLASSIFICATION_TYPE":"U","GP_ID":"204998568","FILE":"3473751","PERIAPSIS":"538.257","ECCENTRICITY":"0.00022310","BSTAR":"0.00210140000000","SITE":"AFETR","NORAD_CAT_ID":"50810","EPOCH":"2022-05-31T14:00:01.000224","RCS_SIZE":"LARGE","PERIOD":"95.439","INCLINATION":"53.2178","REF_FRAME":"TEME","CENTER_NAME":"EARTH","ELEMENT_SET_NO":"999","MEAN_MOTION_DDOT":"0.0000000000000","SEMIMAJOR_AXIS":"6917.935","RA_OF_ASC_NODE":"225.6889","APOAPSIS":"541.344","ARG_OF_PERICENTER":"34.7002","TLE_LINE2":"2 50810  53.2178 225.6889 0002231  34.7002 169.2155 15.08822029 23748"},{"COUNTRY_CODE":"US","TIME_SYSTEM":"UTC","MEAN_MOTION_DOT":"-0.00015988","CLASSIFICATION_TYPE":"U","GP_ID":"205037137","LAUNCH_DATE":"2022-01-06","TLE_LINE1":"1 50811U 22001J   22151.91667824 -.00015988  00000-0 -98806-3 0  9991","OBJECT_TYPE":"PAYLOAD","OBJECT_NAME":"STARLINK-3347","EPHEMERIS_TYPE":"0","OBJECT_ID":"2022-001J","REV_AT_EPOCH":"2383","MEAN_ANOMALY":"221.8464","MEAN_MOTION":"15.08859934","MEAN_ELEMENT_THEORY":"SGP4","DECAY_DATE":null,"CENTER_NAME":"EARTH","ELEMENT_SET_NO":"999","INCLINATION":"53.2191","REF_FRAME":"TEME","APOAPSIS":"541.350","RA_OF_ASC_NODE":"224.1819","ARG_OF_PERICENTER":"33.6715","TLE_LINE2":"2 50811  53.2191 224.1819 0002407  33.6715 221.8464 15.08859934 23838","MEAN_MOTION_DDOT":"0.0000000000000","SEMIMAJOR_AXIS":"6917.819","ECCENTRICITY":"0.00024070","BSTAR":"-0.00098806000000","FILE":"3474351","PERIAPSIS":"538.019","RCS_SIZE":"LARGE","EPOCH":"2022-05-31T22:00:00.999936","PERIOD":"95.436","SITE":"AFETR","NORAD_CAT_ID":"50811"},{"NORAD_CAT_ID":"50812","SITE":"AFETR","RCS_SIZE":"LARGE","PERIOD":"95.439","EPOCH":"2022-05-31T14:00:01.000224","PERIAPSIS":"538.358","FILE":"3473800","BSTAR":"0.00166320000000","ECCENTRICITY":"0.00021060","SEMIMAJOR_AXIS":"6917.950","MEAN_MOTION_DDOT":"0.0000000000000","TLE_LINE2":"2 50812  53.2136 225.6778 0002106  37.3449  41.3843 15.08817349 23749","ARG_OF_PERICENTER":"37.3449","APOAPSIS":"541.272","RA_OF_ASC_NODE":"225.6778","REF_FRAME":"TEME","INCLINATION":"53.2136","ELEMENT_SET_NO":"999","CENTER_NAME":"EARTH","MEAN_ELEMENT_THEORY":"SGP4","DECAY_DATE":null,"MEAN_MOTION":"15.08817349","REV_AT_EPOCH":"2374","MEAN_ANOMALY":"41.3843","OBJECT_ID":"2022-001K","EPHEMERIS_TYPE":"0","OBJECT_NAME":"STARLINK-3338","OBJECT_TYPE":"PAYLOAD","TLE_LINE1":"1 50812U 22001K   22151.58334491  .00026265  00000-0  16632-2 0  9990","LAUNCH_DATE":"2022-01-06","GP_ID":"204999561","CLASSIFICATION_TYPE":"U","MEAN_MOTION_DOT":"0.00026265","TIME_SYSTEM":"UTC","COUNTRY_CODE":"US"}];
